NORAD_CAT_ID,OBJECT_NAME,OBJECT_TYPE,EPOCH,MEAN_MOTION,ECCENTRICITY,INCLINATION,RA_OF_ASC_NODE,ARG_OF_PERICENTER,MEAN_ANOMALY,BSTAR,MEAN_MOTION_DOT,MEAN_MOTION_DDOT,TLE_LINE0,TLE_LINE1,TLE_LINE2,SEMIMAJOR_AXIS,PERIOD,APOGEE,PERIGEE,DECAYED
52564.0,STARLINK-3959,PAYLOAD,2023-05-22 17:48:46,15.08841366,0.0001027,53.2193,41.8278,87.0737,273.0373,-6.7725e-05,-1.365e-05,0.0,0 STARLINK-3959,1 52564U 22051AH  23142.74220618 -.00001365  00000-0 -67725-4 0  9992,2 52564  53.2193  41.8278 0001027  87.0737 273.0373 15.08841366 57165,6917.876,95.437,540.452,539.031,0.0
52564.0,STARLINK-3959,PAYLOAD,2023-05-22 20:59:32,15.08842475,0.000108,53.2192,41.2337,86.684,273.4276,-5.1695e-05,-1.11e-05,0.0,0 STARLINK-3959,1 52564U 22051AH  23142.87468553 -.00001110  00000-0 -51695-4 0  9995,2 52564  53.2192  41.2337 0001080  86.6840 273.4276 15.08842475 57116,6917.873,95.437,540.485,538.991,0.0
52564.0,STARLINK-3959,PAYLOAD,2023-05-24 00:01:05,15.08840775,0.0001134,53.2189,36.1796,75.5501,284.5617,0.00036104,5.463e-05,0.0,0 STARLINK-3959,1 52564U 22051AH  23144.00076275  .00005463  00000-0  36104-3 0  9998,2 52564  53.2189  36.1796 0001134  75.5501 284.5617 15.08840775 57354,6917.878,95.438,540.528,538.959,0.0
52564.0,STARLINK-3959,PAYLOAD,2023-05-25 22:07:16,15.0884336,9.98e-05,53.217,27.5598,97.945,262.1655,5.7312e-05,6.25e-06,0.0,0 STARLINK-3959,1 52564U 22051AH  23145.92172420  .00000625  00000-0  57312-4 0  9999,2 52564  53.2170  27.5598 0000998  97.9450 262.1655 15.08843360 57577,6917.87,95.437,540.426,539.045,0.0
52564.0,STARLINK-3959,PAYLOAD,2023-05-26 01:18:02,15.08846871,0.0001021,53.2173,26.9645,88.5097,271.6012,7.5379e-05,9.12e-06,0.0,0 STARLINK-3959,1 52564U 22051AH  23146.05420128  .00000912  00000-0  75379-4 0  9997,2 52564  53.2173  26.9645 0001021  88.5097 271.6012 15.08846871 57669,6917.859,95.437,540.431,539.018,0.0
52564.0,STARLINK-3959,PAYLOAD,2023-05-26 20:22:41,15.08838968,0.0001088,53.2182,23.3939,87.2608,272.8509,5.7513e-05,6.28e-06,0.0,0 STARLINK-3959,1 52564U 22051AH  23146.84908618  .00000628  00000-0  57513-4 0  9993,2 52564  53.2182  23.3939 0001088  87.2608 272.8509 15.08838968 57711,6917.884,95.438,540.501,538.996,0.0
52564.0,STARLINK-3959,PAYLOAD,2023-05-27 01:08:50,15.08843329,0.0001126,53.2182,22.5012,87.2765,272.8356,9.0306e-05,1.15e-05,0.0,0 STARLINK-3959,1 52564U 22051AH  23147.04780241  .00001150  00000-0  90306-4 0  9994,2 52564  53.2182  22.5012 0001126  87.2765 272.8356 15.08843329 57819,6917.87,95.437,540.514,538.956,0.0
52564.0,STARLINK-3959,PAYLOAD,2023-05-27 09:05:46,15.08835606,0.0001139,53.2193,21.0123,91.461,268.6512,2.0693e-05,4.2e-07,0.0,0 STARLINK-3959,1 52564U 22051AH  23147.37900904  .00000042  00000-0  20693-4 0  9991,2 52564  53.2193  21.0123 0001139  91.4610 268.6512 15.08835606 57869,6917.894,95.438,540.547,538.971,0.0
52564.0,STARLINK-3959,PAYLOAD,2023-05-27 21:48:51,15.08838735,0.000121,53.2186,18.6338,95.4724,264.6406,-8.9645e-05,-1.714e-05,0.0,0 STARLINK-3959,1 52564U 22051AH  23147.90893221 -.00001714  00000-0 -89645-4 0  9994,2 52564  53.2186  18.6338 0001210  95.4724 264.6406 15.08838735 57876,6917.884,95.438,540.586,538.912,0.0
52564.0,STARLINK-3959,PAYLOAD,2023-05-28 20:04:15,15.08842726,0.000104,53.2184,14.4737,82.9922,277.1188,7.6379e-05,9.28e-06,0.0,0 STARLINK-3959,1 52564U 22051AH  23148.83628712  .00000928  00000-0  76379-4 0  9992,2 52564  53.2184  14.4737 0001040  82.9922 277.1188 15.08842726 58088,6917.872,95.437,540.457,539.018,0.0
52564.0,STARLINK-3959,PAYLOAD,2023-05-28 21:39:38,15.08844508,0.0001022,53.218,14.1766,86.8702,273.2407,0.00011592,1.558e-05,0.0,0 STARLINK-3959,1 52564U 22051AH  23148.90252483  .00001558  00000-0  11592-3 0  9993,2 52564  53.2180  14.1766 0001022  86.8702 273.2407 15.08844508 58027,6917.867,95.437,540.439,539.025,0.0
52564.0,STARLINK-3959,PAYLOAD,2023-05-29 00:50:24,15.08838647,0.0001139,53.2187,13.5787,107.9224,252.1892,0.00022846,3.35e-05,0.0,0 STARLINK-3959,1 52564U 22051AH  23149.03500483  .00003350  00000-0  22846-3 0  9990,2 52564  53.2187  13.5787 0001139 107.9224 252.1892 15.08838647 58046,6917.885,95.438,540.537,538.962,0.0
52564.0,STARLINK-3959,PAYLOAD,2023-05-29 21:30:25,15.08837486,0.0001106,53.2183,9.7137,93.0424,267.0695,9.435e-05,1.214e-05,0.0,0 STARLINK-3959,1 52564U 22051AH  23149.89613075  .00001214  00000-0  94350-4 0  9993,2 52564  53.2183   9.7137 0001106  93.0424 267.0695 15.08837486 58179,6917.888,95.438,540.518,538.988,0.0
52564.0,STARLINK-3959,PAYLOAD,2023-05-30 14:59:40,15.08871071,8.05e-05,53.2192,6.4414,90.7919,269.3166,-0.00039433,-6.563e-05,0.0,0 STARLINK-3959,1 52564U 22051AH  23150.62477034 -.00006563  00000-0 -39433-3 0  9993,2 52564  53.2192   6.4414 0000805  90.7919 269.3166 15.08871071 58355,6917.785,95.436,540.207,539.094,0.0
52564.0,STARLINK-3959,PAYLOAD,2023-05-30 19:45:49,15.08846677,9.52e-05,53.219,5.5501,93.6013,266.5088,-1.0058e-05,-4.48e-06,0.0,0 STARLINK-3959,1 52564U 22051AH  23150.82348870 -.00000448  00000-0 -10058-4 0  9999,2 52564  53.2190   5.5501 0000952  93.6013 266.5088 15.08846677 58312,6917.86,95.437,540.384,539.066,0.0
52564.0,STARLINK-3959,PAYLOAD,2023-05-31 18:01:13,15.08837789,9.6e-05,53.218,1.3893,94.1979,265.9122,3.6826e-05,2.98e-06,0.0,0 STARLINK-3959,1 52564U 22051AH  23151.75085314  .00000298  00000-0  36826-4 0  9995,2 52564  53.2180   1.3893 0000960  94.1979 265.9122 15.08837789 58524,6917.887,95.438,540.416,539.088,0.0
52564.0,STARLINK-3959,PAYLOAD,2023-05-31 21:11:59,15.08839106,9.76e-05,53.218,0.7947,93.961,266.1494,4.5752e-05,4.4e-06,0.0,0 STARLINK-3959,1 52564U 22051AH  23151.88333216  .00000440  00000-0  45752-4 0  9993,2 52564  53.2180   0.7947 0000976  93.9610 266.1494 15.08839106 58477,6917.883,95.438,540.423,539.073,0.0
52564.0,STARLINK-3959,PAYLOAD,2023-06-01 06:44:18,15.08838177,9.79e-05,53.2183,359.0103,89.9649,270.1455,5.3187e-05,5.59e-06,0.0,0 STARLINK-3959,1 52564U 22051AH  23152.28077299  .00000559  00000-0  53187-4 0  9996,2 52564  53.2183 359.0103 0000979  89.9649 270.1455 15.08838177 58530,6917.886,95.438,540.428,539.074,0.0
52564.0,STARLINK-3959,PAYLOAD,2023-06-01 16:16:37,15.08835996,0.0001035,53.2183,357.2265,84.4517,275.6593,7.3036e-06,-1.72e-06,0.0,0 STARLINK-3959,1 52564U 22051AH  23152.67821697 -.00000172  00000-0  73036-5 0  9996,2 52564  53.2183 357.2265 0001035  84.4517 275.6593 15.08835996 58592,6917.893,95.438,540.474,539.042,0.0
52564.0,STARLINK-3959,PAYLOAD,2023-06-02 12:56:38,15.08840514,0.0001052,53.2183,353.3609,84.0072,276.104,5.7613e-05,6.29e-06,0.0,0 STARLINK-3959,1 52564U 22051AH  23153.53933432  .00000629  00000-0  57613-4 0  9991,2 52564  53.2183 353.3609 0001052  84.0072 276.1040 15.08840514 58799,6917.879,95.438,540.472,539.016,0.0
52564.0,STARLINK-3959,PAYLOAD,2023-06-02 20:53:34,15.08842065,0.000104,53.2183,351.8739,83.0003,277.1108,6.4657e-05,7.41e-06,0.0,0 STARLINK-3959,1 52564U 22051AH  23153.87053316  .00000741  00000-0  64657-4 0  9993,2 52564  53.2183 351.8739 0001040  83.0003 277.1108 15.08842065 58773,6917.874,95.437,540.459,539.02,0.0
52564.0,STARLINK-3959,PAYLOAD,2023-06-03 12:47:25,15.08836326,9.67e-05,53.2181,348.9006,87.5549,272.5554,6.154e-05,6.92e-06,0.0,0 STARLINK-3959,1 52564U 22051AH  23154.53293667  .00000692  00000-0  61540-4 0  9995,2 52564  53.2181 348.9006 0000967  87.5549 272.5554 15.08836326 58874,6917.892,95.438,540.426,539.088,0.0
52564.0,STARLINK-3959,PAYLOAD,2023-06-03 19:08:58,15.08840109,9.59e-05,53.2181,347.7107,92.4475,267.6627,6.3693e-05,7.26e-06,0.0,0 STARLINK-3959,1 52564U 22051AH  23154.79789451  .00000726  00000-0  63693-4 0  9993,2 52564  53.2181 347.7107 0000959  92.4475 267.6627 15.08840109 58989,6917.88,95.438,540.408,539.082,0.0
52564.0,STARLINK-3959,PAYLOAD,2023-06-04 07:52:03,15.08841365,0.0001026,53.2178,345.3318,93.529,266.582,5.1274e-05,5.28e-06,0.0,0 STARLINK-3959,1 52564U 22051AH  23155.32781409  .00000528  00000-0  51274-4 0  9990,2 52564  53.2178 345.3318 0001026  93.5290 266.5820 15.08841365 58995,6917.876,95.437,540.451,539.031,0.0
52564.0,STARLINK-3959,PAYLOAD,2023-06-04 18:59:44,15.08844225,0.0001014,53.218,343.2499,99.6483,260.4624,6.4933e-05,7.46e-06,0.0,0 STARLINK-3959,1 52564U 22051AH  23155.79149109  .00000746  00000-0  64933-4 0  9994,2 52564  53.2180 343.2499 0001014  99.6483 260.4624 15.08844225 59065,6917.867,95.437,540.434,539.031,0.0
52564.0,STARLINK-3959,PAYLOAD,2023-06-04 22:10:30,15.08846123,0.0001024,53.2179,342.6551,98.2314,261.8795,7.8538e-05,9.63e-06,0.0,0 STARLINK-3959,1 52564U 22051AH  23155.92396911  .00000963  00000-0  78538-4 0  9991,2 52564  53.2179 342.6551 0001024  98.2314 261.8795 15.08846123 59157,6917.862,95.437,540.435,539.018,0.0
52564.0,STARLINK-3959,PAYLOAD,2023-06-05 12:29:00,15.08823478,0.0001056,53.2176,339.9781,103.0865,257.0245,0.00018827,2.708e-05,0.0,0 STARLINK-3959,1 52564U 22051AH  23156.52013994  .00002708  00000-0  18827-3 0  9998,2 52564  53.2176 339.9781 0001056 103.0865 257.0245 15.08823478 59176,6917.931,95.439,540.526,539.065,0.0
52564.0,STARLINK-3959,PAYLOAD,2023-06-05 17:15:09,15.08829639,9.54e-05,53.2177,339.0866,102.1513,257.9586,0.00019902,2.88e-05,0.0,0 STARLINK-3959,1 52564U 22051AH  23156.71885677  .00002880  00000-0  19902-3 0  9990,2 52564  53.2177 339.0866 0000954 102.1513 257.9586 15.08829639 59271,6917.912,95.438,540.437,539.117,0.0
52564.0,STARLINK-3959,PAYLOAD,2023-06-05 18:50:32,15.08840805,0.0001024,53.2177,338.7898,96.2734,263.8375,6.2942e-05,7.14e-06,0.0,0 STARLINK-3959,1 52564U 22051AH  23156.78509328  .00000714  00000-0  62942-4 0  9990,2 52564  53.2177 338.7898 0001024  96.2734 263.8375 15.08840805 59213,6917.878,95.438,540.451,539.035,0.0
52564.0,STARLINK-3959,PAYLOAD,2023-06-06 12:19:47,15.08834294,9.88e-05,53.2174,335.5183,90.6424,269.4681,1.6776e-06,-2.61e-06,0.0,0 STARLINK-3959,1 52564U 22051AH  23157.51373943 -.00000261  00000-0  16776-5 0  9997,2 52564  53.2174 335.5183 0000988  90.6424 269.4681 15.08834294 59323,6917.898,95.438,540.446,539.079,0.0
